NORAD_CAT_ID,OBJECT_NAME,OBJECT_TYPE,EPOCH,MEAN_MOTION,ECCENTRICITY,INCLINATION,RA_OF_ASC_NODE,ARG_OF_PERICENTER,MEAN_ANOMALY,BSTAR,MEAN_MOTION_DOT,MEAN_MOTION_DDOT,TLE_LINE0,TLE_LINE1,TLE_LINE2,SEMIMAJOR_AXIS,PERIOD,APOGEE,PERIGEE,DECAYED
53895.0,STARLINK-5032,PAYLOAD,2023-02-28 20:34:41,15.08833354,0.0001116,53.2166,243.8167,94.7538,265.3582,-0.00012628,-2.297e-05,0.0,0 STARLINK-5032,1 53895U 22119K   23059.85742725 -.00002297  00000-0 -12628-3 0  9998,2 53895  53.2166 243.8167 0001116  94.7538 265.3582 15.08833354 24895,6917.901,95.438,540.538,538.994,0.0
53895.0,STARLINK-5032,PAYLOAD,2023-03-01 18:50:04,15.08845868,0.0001112,53.2161,239.6546,100.8292,259.2825,3.5564e-06,-2.31e-06,0.0,0 STARLINK-5032,1 53895U 22119K   23060.78477697 -.00000231  00000-0  35564-5 0  9996,2 53895  53.2161 239.6546 0001112 100.8292 259.2825 15.08845868 24611,6917.862,95.437,540.497,538.958,0.0
53895.0,STARLINK-5032,PAYLOAD,2023-03-01 20:25:27,15.08846962,0.0001139,53.2161,239.3569,99.8389,260.2732,6.327e-06,-1.87e-06,0.0,0 STARLINK-5032,1 53895U 22119K   23060.85101606 -.00000187  00000-0  63270-5 0  9993,2 53895  53.2161 239.3569 0001139  99.8389 260.2732 15.08846962 25049,6917.859,95.437,540.512,538.936,0.0
53895.0,STARLINK-5032,PAYLOAD,2023-03-02 18:40:52,15.08833225,0.0001486,53.216,235.1936,93.4427,266.6735,4.972e-05,5.03e-06,0.0,0 STARLINK-5032,1 53895U 22119K   23061.77838721  .00000503  00000-0  49720-4 0  9994,2 53895  53.2160 235.1936 0001486  93.4427 266.6735 15.08833225 24767,6917.901,95.438,540.794,538.738,0.0
53895.0,STARLINK-5032,PAYLOAD,2023-03-03 10:34:44,15.08840069,0.000101,53.2189,232.222,89.708,270.4027,-3.3552e-05,-8.22e-06,0.0,0 STARLINK-5032,1 53895U 22119K   23062.44078892 -.00000822  00000-0 -33552-4 0  9996,2 53895  53.2189 232.2220 0001010  89.7080 270.4027 15.08840069 25287,6917.88,95.438,540.444,539.046,0.0
53895.0,STARLINK-5032,PAYLOAD,2023-03-04 10:25:31,15.08833529,0.0001063,53.2171,227.7608,81.0542,279.057,7.4048e-05,8.91e-06,0.0,0 STARLINK-5032,1 53895U 22119K   23063.43438732  .00000891  00000-0  74048-4 0  9998,2 53895  53.2171 227.7608 0001063  81.0542 279.0570 15.08833529 25015,6917.9,95.438,540.501,539.03,0.0
53895.0,STARLINK-5032,PAYLOAD,2023-03-04 12:00:54,15.0883242,0.0001103,53.2173,227.4633,80.716,279.3957,5.8759e-05,6.47e-06,0.0,0 STARLINK-5032,1 53895U 22119K   23063.50062896  .00000647  00000-0  58759-4 0  9990,2 53895  53.2173 227.4633 0001103  80.7160 279.3957 15.08832420 25447,6917.904,95.438,540.532,539.006,0.0
53895.0,STARLINK-5032,PAYLOAD,2023-03-04 15:11:40,15.08841423,0.0001345,53.2183,226.8683,85.8788,274.2357,8.7565e-05,1.106e-05,0.0,0 STARLINK-5032,1 53895U 22119K   23063.63310325  .00001106  00000-0  87565-4 0  9995,2 53895  53.2183 226.8683 0001345  85.8788 274.2357 15.08841423 25043,6917.876,95.437,540.671,538.811,0.0
53895.0,STARLINK-5032,PAYLOAD,2023-03-04 21:33:12,15.08847984,0.0001235,53.2168,225.6776,77.8172,282.2959,9.5079e-05,1.226e-05,0.0,0 STARLINK-5032,1 53895U 22119K   23063.89805741  .00001226  00000-0  95079-4 0  9996,2 53895  53.2168 225.6776 0001235  77.8172 282.2959 15.08847984 25508,6917.856,95.437,540.575,538.867,0.0
53895.0,STARLINK-5032,PAYLOAD,2023-03-05 03:54:45,15.08835796,0.0001174,53.2172,224.4884,76.3531,283.7592,-2.7678e-05,-7.28e-06,0.0,0 STARLINK-5032,1 53895U 22119K   23064.16302902 -.00000728  00000-0 -27678-4 0  9996,2 53895  53.2172 224.4884 0001174  76.3531 283.7592 15.08835796 25120,6917.893,95.438,540.57,538.946,0.0
53895.0,STARLINK-5032,PAYLOAD,2023-03-05 16:37:50,15.0883686,0.0001382,53.2167,222.1099,76.9564,283.1583,-4.4092e-05,-9.9e-06,0.0,0 STARLINK-5032,1 53895U 22119K   23064.69294996 -.00000990  00000-0 -44092-4 0  9997,2 53895  53.2167 222.1099 0001382  76.9564 283.1583 15.08836860 25622,6917.89,95.438,540.711,538.799,0.0
53895.0,STARLINK-5032,PAYLOAD,2023-03-06 10:07:05,15.08836388,0.0001368,53.2173,218.8397,85.2109,274.9039,-8.9948e-06,-4.31e-06,0.0,0 STARLINK-5032,1 53895U 22119K   23065.42158826 -.00000431  00000-0 -89948-5 0  9990,2 53895  53.2173 218.8397 0001368  85.2109 274.9039 15.08836388 25319,6917.891,95.438,540.703,538.81,0.0
53895.0,STARLINK-5032,PAYLOAD,2023-03-06 19:39:23,15.08847819,0.0001769,53.2159,217.0539,85.7626,274.3568,-1.896e-05,-5.9e-06,0.0,0 STARLINK-5032,1 53895U 22119K   23065.81902131 -.00000590  00000-0 -18960-4 0  9990,2 53895  53.2159 217.0539 0001769  85.7626 274.3568 15.08847819 25374,6917.856,95.437,540.945,538.498,0.0
53895.0,STARLINK-5032,PAYLOAD,2023-03-07 09:57:52,15.08831862,0.0001237,53.2162,214.3782,101.534,258.5792,6.3229e-06,-1.87e-06,0.0,0 STARLINK-5032,1 53895U 22119K   23066.41518806 -.00000187  00000-0  63229-5 0  9999,2 53895  53.2162 214.3782 0001237 101.5340 258.5792 15.08831862 25462,6917.905,95.438,540.626,538.915,0.0
53895.0,STARLINK-5032,PAYLOAD,2023-03-07 16:19:24,15.08842667,0.0001595,53.2148,213.1893,97.104,263.0134,8.3967e-05,1.049e-05,0.0,0 STARLINK-5032,1 53895U 22119K   23066.68013919  .00001049  00000-0  83967-4 0  9990,2 53895  53.2148 213.1893 0001595  97.1040 263.0134 15.08842667 25501,6917.872,95.437,540.841,538.634,0.0
53895.0,STARLINK-5032,PAYLOAD,2023-03-08 09:48:39,15.08834498,0.0001969,53.2134,209.918,97.5837,262.5379,-6.5351e-05,-1.328e-05,0.0,0 STARLINK-5032,1 53895U 22119K   23067.40879183 -.00001328  00000-0 -65351-4 0  9993,2 53895  53.2134 209.9180 0001969  97.5837 262.5379 15.08834498 25611,6917.897,95.438,541.124,538.4,0.0
53895.0,STARLINK-5032,PAYLOAD,2023-03-08 16:10:11,15.08839452,0.0001413,53.2135,208.7287,84.6438,275.4716,-1.4754e-05,-5.23e-06,0.0,0 STARLINK-5032,1 53895U 22119K   23067.67374789 -.00000523  00000-0 -14754-4 0  9991,2 53895  53.2135 208.7287 0001413  84.6438 275.4716 15.08839452 26079,6917.882,95.438,540.725,538.77,0.0
53895.0,STARLINK-5032,PAYLOAD,2023-03-09 12:50:11,15.0885252,0.0001753,53.2148,204.8628,116.678,243.4391,7.2368e-05,8.64e-06,0.0,0 STARLINK-5032,1 53895U 22119K   23068.53485562  .00000864  00000-0  72368-4 0  9990,2 53895  53.2148 204.8628 0001753 116.6780 243.4391 15.08852520 25784,6917.842,95.437,540.92,538.494,0.0
53895.0,STARLINK-5032,PAYLOAD,2023-03-10 01:33:16,15.08844976,0.0001163,53.2181,202.4853,94.1158,265.9967,0.00012196,1.654e-05,0.0,0 STARLINK-5032,1 53895U 22119K   23069.06477747  .00001654  00000-0  12196-3 0  9995,2 53895  53.2181 202.4853 0001163  94.1158 265.9967 15.08844976 25862,6917.865,95.437,540.535,538.926,0.0
53895.0,STARLINK-5032,PAYLOAD,2023-03-10 09:30:15,15.08813458,0.0001285,53.2169,200.9992,88.8232,271.2907,-0.00019829,-3.44e-05,0.0,0 STARLINK-5032,1 53895U 22119K   23069.39601196 -.00003440  00000-0 -19829-3 0  9995,2 53895  53.2169 200.9992 0001285  88.8232 271.2907 15.08813458 25914,6917.962,95.439,540.715,538.938,0.0
53895.0,STARLINK-5032,PAYLOAD,2023-03-10 15:51:47,15.08826097,0.0001183,53.2168,199.8095,86.2826,273.8301,-8.3055e-05,-1.609e-05,0.0,0 STARLINK-5032,1 53895U 22119K   23069.66096391 -.00001609  00000-0 -83055-4 0  9998,2 53895  53.2168 199.8095 0001183  86.2826 273.8301 15.08826097 25954,6917.923,95.438,540.606,538.969,0.0
53895.0,STARLINK-5032,PAYLOAD,2023-03-11 09:21:01,15.08835287,0.0001384,53.2181,196.5387,88.703,271.4121,-7.8231e-06,-4.12e-06,0.0,0 STARLINK-5032,1 53895U 22119K   23070.38959812 -.00000412  00000-0 -78231-5 0  9997,2 53895  53.2181 196.5387 0001384  88.7030 271.4121 15.08835287 26062,6917.895,95.438,540.717,538.802,0.0
53895.0,STARLINK-5032,PAYLOAD,2023-03-11 17:17:55,15.08858787,0.0001476,53.2164,195.0489,81.7346,278.3814,6.3487e-05,7.23e-06,0.0,0 STARLINK-5032,1 53895U 22119K   23070.72077987  .00000723  00000-0  63487-4 0  9998,2 53895  53.2164 195.0489 0001476  81.7346 278.3814 15.08858787 26116,6917.823,95.436,540.709,538.667,0.0
53895.0,STARLINK-5032,PAYLOAD,2023-03-12 09:11:48,15.08825753,0.0001659,53.2176,192.0802,98.5278,261.5902,0.00014374,1.999e-05,0.0,0 STARLINK-5032,1 53895U 22119K   23071.38319784  .00001999  00000-0  14374-3 0  9991,2 53895  53.2176 192.0802 0001659  98.5278 261.5902 15.08825753 26218,6917.924,95.438,540.937,538.641,0.0
53895.0,STARLINK-5032,PAYLOAD,2023-03-12 17:08:43,15.08832575,0.0001852,53.2169,190.5926,101.1804,258.9396,6.7029e-05,7.79e-06,0.0,0 STARLINK-5032,1 53895U 22119K   23071.71439808  .00000779  00000-0  67029-4 0  9999,2 53895  53.2169 190.5926 0001852 101.1804 258.9396 15.08832575 26689,6917.903,95.438,541.049,538.487,0.0
53895.0,STARLINK-5032,PAYLOAD,2023-03-13 07:27:12,15.08835864,0.0001995,53.218,187.9163,90.103,270.019,-9.5768e-05,-1.812e-05,0.0,0 STARLINK-5032,1 53895U 22119K   23072.31055856 -.00001812  00000-0 -95768-4 0  9995,2 53895  53.2180 187.9163 0001995  90.1030 270.0190 15.08835864 26356,6917.893,95.438,541.138,538.378,0.0
53895.0,STARLINK-5032,PAYLOAD,2023-03-14 13:39:30,15.08856511,8.9e-05,53.2183,182.265,86.8085,273.3009,-0.00010086,-1.893e-05,0.0,0 STARLINK-5032,1 53895U 22119K   23073.56910623 -.00001893  00000-0 -10086-3 0  9993,2 53895  53.2183 182.2650 0000890  86.8085 273.3009 15.08856511 26967,6917.83,95.437,540.311,539.079,0.0
53895.0,STARLINK-5032,PAYLOAD,2023-03-15 11:54:54,15.08843274,0.0001072,53.216,178.1031,68.144,291.9666,0.00011069,1.474e-05,0.0,0 STARLINK-5032,1 53895U 22119K   23074.49646388  .00001474  00000-0  11069-3 0  9995,2 53895  53.2160 178.1031 0001072  68.1440 291.9666 15.08843274 26686,6917.87,95.437,540.477,538.994,0.0
53895.0,STARLINK-5032,PAYLOAD,2023-03-16 10:10:20,15.08832134,0.000106,53.2169,173.9402,62.5643,297.5457,-9.0609e-05,-1.729e-05,0.0,0 STARLINK-5032,1 53895U 22119K   23075.42384279 -.00001729  00000-0 -90609-4 0  9990,2 53895  53.2169 173.9402 0001060  62.5643 297.5457 15.08832134 26829,6917.904,95.438,540.503,539.036,0.0
53895.0,STARLINK-5032,PAYLOAD,2023-03-17 10:01:08,15.08823957,0.0001399,53.2178,169.4791,112.144,247.97,-0.00018232,-3.187e-05,0.0,0 STARLINK-5032,1 53895U 22119K   23076.41746306 -.00003187  00000-0 -18232-3 0  9994,2 53895  53.2178 169.4791 0001399 112.1440 247.9700 15.08823957 26971,6917.929,95.439,540.762,538.827,0.0
